[{"OBJECT_NAME":"GPS BIIF-7  (PRN 09)","OBJECT_ID":"2014-045A","EPOCH":"2026-03-04T20:18:09.213408","MEAN_MOTION":2.00551558,"ECCENTRICITY":0.00315077,"INCLINATION":55.2815,"RA_OF_ASC_NODE":92.6206,"ARG_OF_PERICENTER":120.4743,"MEAN_ANOMALY":239.9033,"EPHEMERIS_TYPE":0,"CLASSIFICATION_TYPE":"U","NORAD_CAT_ID":40105,"ELEMENT_SET_NO":999,"REV_AT_EPOCH":8398,"BSTAR":0,"MEAN_MOTION_DOT":5.0e-8,"MEAN_MOTION_DDOT":0},{"OBJECT_NAME":"GPS BIIF-8  (PRN 03)","OBJECT_ID":"2014-068A","EPOCH":"2026-03-05T05:20:32.867232","MEAN_MOTION":2.00569928,"ECCENTRICITY":0.00628182,"INCLINATION":56.9201,"RA_OF_ASC_NODE":34.9602,"ARG_OF_PERICENTER":68.0542,"MEAN_ANOMALY":292.5966,"EPHEMERIS_TYPE":0,"CLASSIFICATION_TYPE":"U","NORAD_CAT_ID":40294,"ELEMENT_SET_NO":999,"REV_AT_EPOCH":8312,"BSTAR":0,"MEAN_MOTION_DOT":-7.9e-7,"MEAN_MOTION_DDOT":0},{"OBJECT_NAME":"GPS BIIF-9  (PRN 26)","OBJECT_ID":"2015-013A","EPOCH":"2026-03-04T20:31:45.858432","MEAN_MOTION":2.0055762,"ECCENTRICITY":0.01087431,"INCLINATION":53.1862,"RA_OF_ASC_NODE":208.4909,"ARG_OF_PERICENTER":39.7896,"MEAN_ANOMALY":320.949,"EPHEMERIS_TYPE":0,"CLASSIFICATION_TYPE":"U","NORAD_CAT_ID":40534,"ELEMENT_SET_NO":999,"REV_AT_EPOCH":7973,"BSTAR":0,"MEAN_MOTION_DOT":0,"MEAN_MOTION_DDOT":0},{"OBJECT_NAME":"GPS BIIF-10 (PRN 08)","OBJECT_ID":"2015-033A","EPOCH":"2026-03-05T00:22:55.335936","MEAN_MOTION":2.00561592,"ECCENTRICITY":0.01145134,"INCLINATION":54.0642,"RA_OF_ASC_NODE":271.3797,"ARG_OF_PERICENTER":28.9911,"MEAN_ANOMALY":331.6658,"EPHEMERIS_TYPE":0,"CLASSIFICATION_TYPE":"U","NORAD_CAT_ID":40730,"ELEMENT_SET_NO":999,"REV_AT_EPOCH":7790,"BSTAR":0,"MEAN_MOTION_DOT":-1.5e-7,"MEAN_MOTION_DDOT":0},{"OBJECT_NAME":"GPS BIIF-11 (PRN 10)","OBJECT_ID":"2015-062A","EPOCH":"2026-03-04T13:49:40.002816","MEAN_MOTION":2.00567082,"ECCENTRICITY":0.01114535,"INCLINATION":56.893,"RA_OF_ASC_NODE":34.8413,"ARG_OF_PERICENTER":231.4983,"MEAN_ANOMALY":127.485,"EPHEMERIS_TYPE":0,"CLASSIFICATION_TYPE":"U","NORAD_CAT_ID":41019,"ELEMENT_SET_NO":999,"REV_AT_EPOCH":7573,"BSTAR":0,"MEAN_MOTION_DOT":-7.9e-7,"MEAN_MOTION_DDOT":0},{"OBJECT_NAME":"GPS BIIF-12 (PRN 32)","OBJECT_ID":"2016-007A","EPOCH":"2026-03-05T03:50:35.213856","MEAN_MOTION":2.00556727,"ECCENTRICITY":0.00954531,"INCLINATION":55.4561,"RA_OF_ASC_NODE":93.5827,"ARG_OF_PERICENTER":246.0235,"MEAN_ANOMALY":113.0379,"EPHEMERIS_TYPE":0,"CLASSIFICATION_TYPE":"U","NORAD_CAT_ID":41328,"ELEMENT_SET_NO":999,"REV_AT_EPOCH":7375,"BSTAR":0,"MEAN_MOTION_DOT":4.0e-8,"MEAN_MOTION_DDOT":0},{"OBJECT_NAME":"GPS BIII-1  (PRN 04)","OBJECT_ID":"2018-109A","EPOCH":"2026-03-05T06:09:31.445280","MEAN_MOTION":2.0055687,"ECCENTRICITY":0.00379286,"INCLINATION":55.6156,"RA_OF_ASC_NODE":96.2856,"ARG_OF_PERICENTER":198.3444,"MEAN_ANOMALY":123.9005,"EPHEMERIS_TYPE":0,"CLASSIFICATION_TYPE":"U","NORAD_CAT_ID":43873,"ELEMENT_SET_NO":999,"REV_AT_EPOCH":5298,"BSTAR":0,"MEAN_MOTION_DOT":6.0e-8,"MEAN_MOTION_DDOT":0},{"OBJECT_NAME":"GPS BIII-2  (PRN 18)","OBJECT_ID":"2019-056A","EPOCH":"2026-03-05T04:27:29.371968","MEAN_MOTION":2.00568377,"ECCENTRICITY":0.00580362,"INCLINATION":55.6843,"RA_OF_ASC_NODE":335.2783,"ARG_OF_PERICENTER":198.12,"MEAN_ANOMALY":333.2871,"EPHEMERIS_TYPE":0,"CLASSIFICATION_TYPE":"U","NORAD_CAT_ID":44506,"ELEMENT_SET_NO":999,"REV_AT_EPOCH":4798,"BSTAR":0,"MEAN_MOTION_DOT":-1.0e-6,"MEAN_MOTION_DDOT":0},{"OBJECT_NAME":"GPS BIII-3  (PRN 23)","OBJECT_ID":"2020-041A","EPOCH":"2026-03-05T06:27:12.231648","MEAN_MOTION":2.00560688,"ECCENTRICITY":0.00613991,"INCLINATION":56.6063,"RA_OF_ASC_NODE":32.9753,"ARG_OF_PERICENTER":205.2468,"MEAN_ANOMALY":328.3125,"EPHEMERIS_TYPE":0,"CLASSIFICATION_TYPE":"U","NORAD_CAT_ID":45854,"ELEMENT_SET_NO":999,"REV_AT_EPOCH":4195,"BSTAR":0,"MEAN_MOTION_DOT":-8.3e-7,"MEAN_MOTION_DDOT":0},{"OBJECT_NAME":"GPS BIII-4  (PRN 14)","OBJECT_ID":"2020-078A","EPOCH":"2026-03-04T23:55:16.078368","MEAN_MOTION":2.00565549,"ECCENTRICITY":0.00682418,"INCLINATION":54.0015,"RA_OF_ASC_NODE":215.0016,"ARG_OF_PERICENTER":204.3193,"MEAN_ANOMALY":105.9697,"EPHEMERIS_TYPE":0,"CLASSIFICATION_TYPE":"U","NORAD_CAT_ID":46826,"ELEMENT_SET_NO":999,"REV_AT_EPOCH":3941,"BSTAR":0,"MEAN_MOTION_DOT":3.0e-8,"MEAN_MOTION_DDOT":0},{"OBJECT_NAME":"GPS BIII-5  (PRN 11)","OBJECT_ID":"2021-054A","EPOCH":"2026-03-05T01:41:15.812160","MEAN_MOTION":2.00575594,"ECCENTRICITY":0.0023861,"INCLINATION":55.2207,"RA_OF_ASC_NODE":336.6471,"ARG_OF_PERICENTER":232.0319,"MEAN_ANOMALY":315.6765,"EPHEMERIS_TYPE":0,"CLASSIFICATION_TYPE":"U","NORAD_CAT_ID":48859,"ELEMENT_SET_NO":999,"REV_AT_EPOCH":3466,"BSTAR":0,"MEAN_MOTION_DOT":-1.01e-6,"MEAN_MOTION_DDOT":0},{"OBJECT_NAME":"GPS BIII-6  (PRN 28)","OBJECT_ID":"2023-009A","EPOCH":"2026-03-04T06:04:38.703072","MEAN_MOTION":2.0054916,"ECCENTRICITY":0.00047611,"INCLINATION":55.1095,"RA_OF_ASC_NODE":152.6438,"ARG_OF_PERICENTER":333.3529,"MEAN_ANOMALY":23.5463,"EPHEMERIS_TYPE":0,"CLASSIFICATION_TYPE":"U","NORAD_CAT_ID":55268,"ELEMENT_SET_NO":999,"REV_AT_EPOCH":2313,"BSTAR":0,"MEAN_MOTION_DOT":6.0e-8,"MEAN_MOTION_DDOT":0},{"OBJECT_NAME":"GPS BIII-7  (PRN 01)","OBJECT_ID":"2024-242A","EPOCH":"2026-02-28T09:59:38.815872","MEAN_MOTION":2.00569355,"ECCENTRICITY":0.0015681,"INCLINATION":54.8934,"RA_OF_ASC_NODE":338.5934,"ARG_OF_PERICENTER":355.9356,"MEAN_ANOMALY":192.485,"EPHEMERIS_TYPE":0,"CLASSIFICATION_TYPE":"U","NORAD_CAT_ID":62339,"ELEMENT_SET_NO":999,"REV_AT_EPOCH":907,"BSTAR":0,"MEAN_MOTION_DOT":-1.0e-6,"MEAN_MOTION_DDOT":0},{"OBJECT_NAME":"GPS BIII-8  (PRN 21)","OBJECT_ID":"2025-116A","EPOCH":"2026-03-03T09:25:01.763328","MEAN_MOTION":2.00553198,"ECCENTRICITY":0.0008474,"INCLINATION":55.1633,"RA_OF_ASC_NODE":35.3874,"ARG_OF_PERICENTER":325.1064,"MEAN_ANOMALY":37.8908,"EPHEMERIS_TYPE":0,"CLASSIFICATION_TYPE":"U","NORAD_CAT_ID":64202,"ELEMENT_SET_NO":999,"REV_AT_EPOCH":575,"BSTAR":0,"MEAN_MOTION_DOT":-7.7e-7,"MEAN_MOTION_DDOT":0},{"OBJECT_NAME":"GPS BIII-9  (PRN 20)","OBJECT_ID":"2026-017A","EPOCH":"2026-03-03T23:57:34.401312","MEAN_MOTION":2.00560918,"ECCENTRICITY":0.00015162,"INCLINATION":55.0184,"RA_OF_ASC_NODE":92.9751,"ARG_OF_PERICENTER":18.2827,"MEAN_ANOMALY":341.7919,"EPHEMERIS_TYPE":0,"CLASSIFICATION_TYPE":"U","NORAD_CAT_ID":67588,"ELEMENT_SET_NO":999,"REV_AT_EPOCH":42950,"BSTAR":0,"MEAN_MOTION_DOT":1.2e-7,"MEAN_MOTION_DDOT":0}]
